{"type": "FeatureCollection", "features": [ {"type": "Feature", "properties": {"norad_id": 66817, "name": "STARLINK-35995", "group": "last-30-days", "lat": 8.096169422697606, "lon": -133.119612171754, "alt_km": 352.597907061122, "timestamp": "2025-12-18T07:01:53.341318+00:00", "meta": {"OBJECT_NAME": "STARLINK-35995", "OBJECT_ID": "2025-278AC", "EPOCH": "2025-12-17T22:00:01.999584", "MEAN_MOTION": 15.73402814, "ECCENTRICITY": 0.00018699, "INCLINATION": 42.999, "RA_OF_ASC_NODE": 220.3742, "ARG_OF_PERICENTER": 274.8377, "MEAN_ANOMALY": 124.247, "EPHEMERIS_TYPE": 0, "CLASSIFICATION_TYPE": "U", "NORAD_CAT_ID": 66817, "ELEMENT_SET_NO": 999, "REV_AT_EPOCH": 379, "BSTAR": -0.015429162, "MEAN_MOTION_DOT": -0.01916201, "MEAN_MOTION_DDOT": 0}, "tle": {"line1": "1 66817U 25278AC  25351.91668981 -.01916201  00000+0 -15429-1 0  9999", "line2": "2 66817  42.9990 220.3742 0001869 274.8377 124.2470 15.73402814  3799"}}, "geometry": {"type": "Point", "coordinates": [-133.119612171754, 8.096169422697606]}}, {"type": "Feature", "properties": {"norad_id": 66818, "name": "STARLINK-35994", "group": "last-30-days", "lat": 6.8015490688385105, "lon": -134.54142900001082, "alt_km": 352.7122127410612, "timestamp": "2025-12-18T07:01:53.341495+00:00", "meta": {"OBJECT_NAME": "STARLINK-35994", "OBJECT_ID": "2025-278AD", "EPOCH": "2025-12-17T22:00:01.999584", "MEAN_MOTION": 15.73400882, "ECCENTRICITY": 0.00016453, "INCLINATION": 42.9989, "RA_OF_ASC_NODE": 220.3797, "ARG_OF_PERICENTER": 275.7552, "MEAN_ANOMALY": 121.4181, "EPHEMERIS_TYPE": 0, "CLASSIFICATION_TYPE": "U", "NORAD_CAT_ID": 66818, "ELEMENT_SET_NO": 999, "REV_AT_EPOCH": 379, "BSTAR": -0.015441018, "MEAN_MOTION_DOT": -0.01956662, "MEAN_MOTION_DDOT": 0}, "tle": {"line1": "1 66818U 25278AD  25351.91668981 -.01956662  00000+0 -15441-1 0  9999", "line2": "2 66818  42.9989 220.3797 0001645 275.7552 121.4181 15.73400882  3796"}}, "geometry": {"type": "Point", "coordinates": [-134.54142900001082, 6.8015490688385105]}}, {"type": "Feature", "properties": {"norad_id": 66819, "name": "STARLINK-35989", "group": "last-30-days", "lat": 9.386142859976927, "lon": -131.6880772281294, "alt_km": 352.5182206876407, "timestamp": "2025-12-18T07:01:53.341507+00:00", "meta": {"OBJECT_NAME": "STARLINK-35989", "OBJECT_ID": "2025-278AE", "EPOCH": "2025-12-17T22:00:01.999584", "MEAN_MOTION": 15.73394441, "ECCENTRICITY": 0.00018258, "INCLINATION": 42.999, "RA_OF_ASC_NODE": 220.3688, "ARG_OF_PERICENTER": 272.7879, "MEAN_ANOMALY": 128.2218, "EPHEMERIS_TYPE": 0, "CLASSIFICATION_TYPE": "U", "NORAD_CAT_ID": 66819, "ELEMENT_SET_NO": 999, "REV_AT_EPOCH": 379, "BSTAR": -0.015365157, "MEAN_MOTION_DOT": -0.01908694, "MEAN_MOTION_DDOT": 0}, "tle": {"line1": "1 66819U 25278AE  25351.91668981 -.01908694  00000+0 -15365-1 0  9997", "line2": "2 66819  42.9990 220.3688 0001825 272.7879 128.2218 15.73394441  3796"}}, "geometry": {"type": "Point", "coordinates": [-131.6880772281294, 9.386142859976927]}}, {"type": "Feature", "properties": {"norad_id": 66820, "name": "KOMPSAT-7", "group": "last-30-days", "lat": 66.77476529055188, "lon": -80.17483306508387, "alt_km": 566.3339186367457, "timestamp": "2025-12-18T07:01:53.341518+00:00", "meta": {"OBJECT_NAME": "KOMPSAT-7", "OBJECT_ID": "2025-279A", "EPOCH": "2025-12-15T00:17:19.244256", "MEAN_MOTION": 15.0015594, "ECCENTRICITY": 0.00093948, "INCLINATION": 97.641, "RA_OF_ASC_NODE": 294.8339, "ARG_OF_PERICENTER": 252.0315, "MEAN_ANOMALY": 107.9885, "EPHEMERIS_TYPE": 0, "CLASSIFICATION_TYPE": "U", "NORAD_CAT_ID": 66820, "ELEMENT_SET_NO": 999, "REV_AT_EPOCH": 199, "BSTAR": 0.00025788518, "MEAN_MOTION_DOT": 3.163e-05, "MEAN_MOTION_DDOT": 0}, "tle": {"line1": "1 66820U 25279A   25349.01202829  .00003163  00000+0  25789-3 0  9990", "line2": "2 66820  97.6410 294.8339 0009394 252.0315 107.9885 15.00155940  1999"}}, "geometry": {"type": "Point", "coordinates": [-80.17483306508387, 66.77476529055188]}}, {"type": "Feature", "properties": {"norad_id": 66821, "name": "STARLINK-35966", "group": "last-30-days", "lat": 55.20342972512265, "lon": -145.16509983989, "alt_km": 387.8955409012442, "timestamp": "2025-12-18T07:01:53.341531+00:00", "meta": {"OBJECT_NAME": "STARLINK-35966", "OBJECT_ID": "2025-280A", "EPOCH": "2025-12-17T22:00:01.999584", "MEAN_MOTION": 15.60185572, "ECCENTRICITY": 0.00036278, "INCLINATION": 69.9992, "RA_OF_ASC_NODE": 184.2646, "ARG_OF_PERICENTER": 277.1647, "MEAN_ANOMALY": 192.032, "EPHEMERIS_TYPE": 0, "CLASSIFICATION_TYPE": "U", "NORAD_CAT_ID": 66821, "ELEMENT_SET_NO": 999, "REV_AT_EPOCH": 373, "BSTAR": -0.026920979, "MEAN_MOTION_DOT": -0.01941496, "MEAN_MOTION_DDOT": 0}, "tle": {"line1": "1 66821U 25280A   25351.91668981 -.01941496  00000+0 -26921-1 0  9990", "line2": "2 66821  69.9992 184.2646 0003627 277.1647 192.0320 15.60185572  3732"}}, "geometry": {"type": "Point", "coordinates": [-145.16509983989, 55.20342972512265]}}, {"type": "Feature", "properties": {"norad_id": 66822, "name": "STARLINK-35958", "group": "last-30-days", "lat": 56.720982781520206, "lon": -143.069841056443, "alt_km": 387.69862564182586, "timestamp": "2025-12-18T07:01:53.341541+00:00", "meta": {"OBJECT_NAME": "STARLINK-35958", "OBJECT_ID": "2025-280B", "EPOCH": "2025-12-17T22:00:01.999584", "MEAN_MOTION": 15.60192105, "ECCENTRICITY": 0.00036054, "INCLINATION": 69.9995, "RA_OF_ASC_NODE": 184.2638, "ARG_OF_PERICENTER": 279.1406, "MEAN_ANOMALY": 191.9694, "EPHEMERIS_TYPE": 0, "CLASSIFICATION_TYPE": "U", "NORAD_CAT_ID": 66822, "ELEMENT_SET_NO": 999, "REV_AT_EPOCH": 373, "BSTAR": -0.027099174, "MEAN_MOTION_DOT": -0.01953234, "MEAN_MOTION_DDOT": 0}, "tle": {"line1": "1 66822U 25280B   25351.91668981 -.01953234  00000+0 -27099-1 0  9991", "line2": "2 66822  69.9995 184.2638 0003605 279.1406 191.9694 15.60192105  3730"}}, "geometry": {"type": "Point", "coordinates": [-143.069841056443, 56.720982781520206]}}, {"type": "Feature", "properties": {"norad_id": 66823, "name": "STARLINK-35957", "group": "last-30-days", "lat": 58.201268160483465, "lon": -140.80046079001502, "alt_km": 387.62977250236145, "timestamp": "2025-12-18T07:01:53.341551+00:00", "meta": {"OBJECT_NAME": "STARLINK-35957", "OBJECT_ID": "2025-280C", "EPOCH": "2025-12-17T22:00:01.999584", "MEAN_MOTION": 15.60190791, "ECCENTRICITY": 0.00036682, "INCLINATION": 69.9993, "RA_OF_ASC_NODE": 184.2607, "ARG_OF_PERICENTER": 278.0641, "MEAN_ANOMALY": 194.9648, "EPHEMERIS_TYPE": 0, "CLASSIFICATION_TYPE": "U", "NORAD_CAT_ID": 66823, "ELEMENT_SET_NO": 999, "REV_AT_EPOCH": 373, "BSTAR": -0.027091118, "MEAN_MOTION_DOT": -0.01952692, "MEAN_MOTION_DDOT": 0}, "tle": {"line1": "1 66823U 25280C   25351.91668981 -.01952692  00000+0 -27091-1 0  9991", "line2": "2 66823  69.9993 184.2607 0003668 278.0641 194.9648 15.60190791  3734"}}, "geometry": {"type": "Point", "coordinates": [-140.80046079001502, 58.201268160483465]}}, {"type": "Feature", "properties": {"norad_id": 66824, "name": "STARLINK-35896", "group": "last-30-days", "lat": 59.63635633853212, "lon": -138.3379279839328, "alt_km": 387.4888138953893, "timestamp": "2025-12-18T07:01:53.341561+00:00", "meta": {"OBJECT_NAME": "STARLINK-35896", "OBJECT_ID": "2025-280D", "EPOCH": "2025-12-17T22:00:01.999584", "MEAN_MOTION": 15.6018805, "ECCENTRICITY": 0.00035964, "INCLINATION": 69.999, "RA_OF_ASC_NODE": 184.2584, "ARG_OF_PERICENTER": 276.4244, "MEAN_ANOMALY": 198.5213, "EPHEMERIS_TYPE": 0, "CLASSIFICATION_TYPE": "U", "NORAD_CAT_ID": 66824, "ELEMENT_SET_NO": 999, "REV_AT_EPOCH": 373, "BSTAR": -0.026996521, "MEAN_MOTION_DOT": -0.01946436, "MEAN_MOTION_DDOT": 0}, "tle": {"line1": "1 66824U 25280D   25351.91668981 -.01946436  00000+0 -26997-1 0  9995", "line2": "2 66824  69.9990 184.2584 0003596 276.4244 198.5213 15.60188050  3730"}}, "geometry": {"type": "Point", "coordinates": [-138.3379279839328, 59.63635633853212]}}, {"type": "Feature", "properties": {"norad_id": 66825, "name": "STARLINK-35476", "group": "last-30-days", "lat": 61.02352719192393, "lon": -135.65481281352845, "alt_km": 387.3705939975771, "timestamp": "2025-12-18T07:01:53.341571+00:00", "meta": {"OBJECT_NAME": "STARLINK-35476", "OBJECT_ID": "2025-280E", "EPOCH": "2025-12-17T22:00:01.999584", "MEAN_MOTION": 15.60188091, "ECCENTRICITY": 0.00037105, "INCLINATION": 69.9989, "RA_OF_ASC_NODE": 184.2561, "ARG_OF_PERICENTER": 279.592, "MEAN_ANOMALY": 197.27, "EPHEMERIS_TYPE": 0, "CLASSIFICATION_TYPE": "U", "NORAD_CAT_ID": 66825, "ELEMENT_SET_NO": 999, "REV_AT_EPOCH": 358, "BSTAR": -0.027005725, "MEAN_MOTION_DOT": -0.01947125, "MEAN_MOTION_DDOT": 0}, "tle": {"line1": "1 66825U 25280E   25351.91668981 -.01947125  00000+0 -27006-1 0  9994", "line2": "2 66825  69.9989 184.2561 0003710 279.5920 197.2700 15.60188091  3582"}}, "geometry": {"type": "Point", "coordinates": [-135.65481281352845, 61.02352719192393]}}, {"type": "Feature", "properties": {"norad_id": 66826, "name": "STARLINK-35898", "group": "last-30-days", "lat": 62.35128926334261, "lon": -132.7349242603808, "alt_km": 387.2253407538319, "timestamp": "2025-12-18T07:01:53.341584+00:00", "meta": {"OBJECT_NAME": "STARLINK-35898", "OBJECT_ID": "2025-280F", "EPOCH": "2025-12-17T22:00:01.999584", "MEAN_MOTION": 15.60183525, "ECCENTRICITY": 0.00036541, "INCLINATION": 69.9989, "RA_OF_ASC_NODE": 184.2537, "ARG_OF_PERICENTER": 279.532, "MEAN_ANOMALY": 199.2483, "EPHEMERIS_TYPE": 0, "CLASSIFICATION_TYPE": "U", "NORAD_CAT_ID": 66826, "ELEMENT_SET_NO": 999, "REV_AT_EPOCH": 373, "BSTAR": -0.026885704, "MEAN_MOTION_DOT": -0.0193914, "MEAN_MOTION_DDOT": 0}, "tle": {"line1": "1 66826U 25280F   25351.91668981 -.01939140  00000+0 -26886-1 0  9998", "line2": "2 66826  69.9989 184.2537 0003654 279.5320 199.2483 15.60183525  3731"}}, "geometry": {"type": "Point", "coordinates": [-132.7349242603808, 62.35128926334261]}}]}